IRNSS-1D                
1 40547U 15018A   18191.69034486 -.00000301  00000-0  00000-0 0  9990
2 40547  29.1063 288.8291 0022051 183.6328 176.4162  1.00269269 11938
THOR 7                  
1 40613U 15022A   18191.20170142 -.00000009  00000-0  00000-0 0  9991
2 40613   0.0307 135.2043 0002340 335.3977 249.4231  1.00271962 11757
TURKMENALEM52E/MONACOSAT
1 40617U 15023A   18191.05583038  .00000104  00000-0  00000+0 0  9995
2 40617   0.0098  31.8018 0002666  83.2477 244.9785  1.00270683 11771
DIRECTV 15              
1 40663U 15026A   18191.48444236 -.00000104  00000-0  00000-0 0  9994
2 40663   0.0109  67.2285 0000383 180.8960 111.8706  1.00269534 11452
SKY MEXICO-1            
1 40664U 15026B   18191.41811850 -.00000235  00000-0  00000+0 0  9992
2 40664   0.0237  30.5713 0001869 105.8109 223.6326  1.00270218 11479
METEOSAT-11 (MSG-4)     
1 40732U 15034A   18191.88739330 -.00000004  00000-0  00000+0 0  9994
2 40732   1.3306 247.3731 0001768 217.8130 142.9767  1.00268157 10986
STAR ONE C4             
1 40733U 15034B   18192.39105483 -.00000269  00000-0  00000+0 0  9991
2 40733   0.0262 337.0529 0001701 101.4506 281.5125  1.00269494 10981
INTELSAT 34 (IS-34)     
1 40874U 15039A   18192.35080749 -.00000290  00000-0  00000+0 0  9999
2 40874   0.0219  20.5822 0000692 324.4864  14.9293  1.00268642 10620
EUTELSAT 8 WEST B       
1 40875U 15039B   18191.22209215 -.00000066  00000-0  00000-0 0  9998
2 40875   0.0635   4.8084 0003635  95.5426 259.6901  1.00271431 10622
GSAT-6                  
1 40880U 15041A   18191.96700979 -.00000168  00000-0  00000+0 0  9993
2 40880   0.0213  77.9705 0004891 175.0371 106.9366  1.00273414 10575
INMARSAT 5-F3           
1 40882U 15042A   18191.69957027  .00000048  00000-0  00000+0 0  9990
2 40882   0.0226  36.1821 0000318 234.9935  88.8207  1.00270109 10499
TJS-1                   
1 40892U 15046A   18191.90950556 -.00000159  00000-0  00000-0 0  9994
2 40892   0.0508 100.0412 0001955  14.4425 296.7555  1.00271371 10491
EXPRESS-AM8             
1 40895U 15048A   18191.94754037 -.00000114  00000-0  00000+0 0  9999
2 40895   0.0474 217.1174 0000302  45.1782 353.6223  1.00271827 10315
SKY MUSTER (NBN1A)      
1 40940U 15054A   18191.90653955 -.00000282  00000-0  00000-0 0  9997
2 40940   0.0185  12.6286 0001553 100.3703 282.3572  1.00269132 10224
ARSAT 2                 
1 40941U 15054B   18192.42152360 -.00000229  00000-0  00000+0 0  9990
2 40941   0.0126  37.3796 0001075  79.7505 242.8810  1.00269517 10265
MORELOS 3               
1 40946U 15056A   18191.42626757 -.00000040  00000-0  00000+0 0  9993
2 40946   5.8964 328.5039 0003266 185.2426 174.9016  1.00271917 10223
APSTAR 9                
1 40982U 15059A   18192.48124928 -.00000270  00000-0  00000+0 0  9991
2 40982   0.0083 337.0799 0000011 328.2591 299.2611  1.00271745 10093
TURKSAT 4B              
1 40984U 15060A   18191.06138646  .00000114  00000-0  00000-0 0  9997
2 40984   0.0113  51.9087 0001877  57.3037 250.8082  1.00272765 10051
CHINASAT 2C (ZX 2C)     
1 41021U 15063A   18192.00671833 -.00000326  00000-0  00000+0 0  9993
2 41021   0.0414 207.6804 0000742 191.7196 355.2961  1.00267842  9957
GSAT-15                 
1 41028U 15065A   18191.93815703 -.00000260  00000-0  00000+0 0  9996
2 41028   0.0698 105.7549 0002244 340.1146 274.1543  1.00270042  9801
BADR-7 (ARABSAT-6B)     
1 41029U 15065B   18192.12493217  .00000142  00000-0  00000+0 0  9999
2 41029   0.0627 254.0313 0003756 325.6386 140.3001  1.00275151  9858
LAOSAT 1                
1 41034U 15067A   18191.84113935 -.00000345  00000-0  00000-0 0  9998
2 41034   0.0421 152.9288 0001653   2.0091 205.0684  1.00273925  9804
TELSTAR 12V             
1 41036U 15068A   18192.23864610 -.00000123  00000-0  00000+0 0  9991
2 41036   0.0239  37.0262 0001595  66.7222 256.2694  1.00270040  9675
CHINASAT 1C (ZX 1C)     
1 41103U 15073A   18191.89484993 -.00000153  00000-0  00000+0 0  9998
2 41103   0.0207 243.7928 0000403  88.6587 359.9986  1.00271615  9601
ELEKTRO-L 2             
1 41105U 15074A   18192.18089627 -.00000099  00000-0  00000+0 0  9998
2 41105   0.0606 151.2202 0001600 328.1288 310.7698  1.00270536  9464
COSMOS 2513             
1 41121U 15075A   18192.18168139 -.00000142  00000-0  00000+0 0  9992
2 41121   0.0832 103.7246 0002486 356.7913 334.1731  1.00271866  9542
EXPRESS-AMU1            
1 41191U 15082A   18191.89552838  .00000153  00000-0  00000-0 0  9999
2 41191   0.0145  64.2947 0002436  49.8191 173.1458  1.00274763  9443
GAOFEN 4                
1 41194U 15083A   18192.79321094 -.00000341  00000-0  00000+0 0  9990
2 41194   0.0459 103.2508 0005214 118.2401  99.4409  1.00271340  9436
BELINTERSAT-1           
1 41238U 16001A   18192.05416757  .00000103  00000-0  00000+0 0  9995
2 41238   0.0059   5.1065 0001915 111.3498 243.5633  1.00272848  9203
IRNSS-1E                
1 41241U 16003A   18191.18934573 -.00000304  00000-0  00000-0 0  9990
2 41241  29.4382 108.0472 0018694 180.7993 179.1376  1.00273140  9022
INTELSAT 29E (IS-29E)   
1 41308U 16004A   18192.33562755 -.00000286  00000-0  00000+0 0  9990
2 41308   0.0140  49.0750 0001516  62.9225 248.0186  1.00271261  9106
EUTELSAT 9B             
1 41310U 16005A   18192.17214495  .00000058  00000-0  00000+0 0  9997
2 41310   0.0336  68.8800 0001667 204.1845  86.9137  1.00270980  9052
SES-9                   
1 41380U 16013A   18191.89714319 -.00000348  00000-0  00000-0 0  9995
2 41380   0.0477 266.5319 0001946 197.4263 256.0618  1.00271365  8416
EUTELSAT 65 WEST A      
1 41382U 16014A   18191.38049766 -.00000277  00000-0  00000-0 0  9990
2 41382   0.0466 359.3647 0001548 121.6661 238.9841  1.00268457  8493
IRNSS-1F                
1 41384U 16015A   18191.81465088  .00000160  00000-0  00000-0 0  9990
2 41384   3.3673 253.9675 0021244 184.2294 176.1283  1.00275211  8638
IRNSS-1G                
1 41469U 16027A   18191.55054468 -.00000333  00000-0  00000+0 0  9996
2 41469   3.4309 255.7342 0005718 196.3498 164.0053  1.00266461  8131
JCSAT 2B                
1 41471U 16028A   18190.77326022 -.00000165  00000-0  00000-0 0  9995
2 41471   0.0141  51.3095 0001913  73.7463 234.9629  1.00270027  8037
THAICOM 8               
1 41552U 16031A   18190.98251258 -.00000121  00000-0  00000+0 0  9991
2 41552   0.0637  45.9293 0003676  20.3611 293.7486  1.00272173  7719
INTELSAT 31 (IS-31)     
1 41581U 16035A   18192.46034371 -.00000155  00000-0  00000+0 0  9994
2 41581   0.0397 245.4289 0001573   6.4360 108.1145  1.00270417  7648
BD-2-G7                 
1 41586U 16037A   18191.79656517 -.00000249  00000-0  00000+0 0  9992
2 41586   0.7635 352.2415 0001163 260.9221 106.8246  1.00272730  7738
ABS-2A (MONGOLSAT-1)    
1 41588U 16038A   18191.99007247 -.00000087  00000-0  00000+0 0  9997
2 41588   0.0152  76.7508 0001566 284.5427 358.7048  1.00271388  7652
EUTELSAT 117 WEST B     
1 41589U 16038B   18191.52396068 -.00000013  00000-0  00000+0 0  9998
2 41589   0.0084 162.8971 0000475 253.6497 303.4569  1.00270069  7649
BRISAT                  
1 41591U 16039A   18191.78020918 -.00000199  00000-0  00000+0 0  9993
2 41591   0.0199  27.2796 0001803  84.4220 248.3176  1.00269991  7584
ECHOSTAR 18             
1 41592U 16039B   18191.36977708 -.00000283  00000-0  00000+0 0  9990
2 41592   0.0181  38.0481 0001248  72.7528 249.2121  1.00271618  7568
TIANTONG-1 1            
1 41725U 16048A   18191.89877554 -.00000315  00000-0  00000-0 0  9991
2 41725   4.0257 326.4802 0002110  70.6994 316.5436  1.00271518  7216
JCSAT-16                
1 41729U 16050A   18191.74839832 -.00000095  00000-0  00000-0 0  9994
2 41729   0.0139  65.2051 0001669  30.3628 264.4498  1.00269508  6993
INTELSAT 36 (IS-36)     
1 41747U 16053A   18192.00730989 -.00000028  00000-0  00000+0 0  9995
2 41747   0.0100   5.4760 0002224 347.3039   7.2148  1.00272045  6916
INTELSAT 33E (IS-33E)   
1 41748U 16053B   18192.03092984  .00000046  00000-0  00000+0 0  9994
2 41748   0.0133   8.3154 0002439 129.4716 222.2298  1.00271789  7168
INSAT-3DR               
1 41752U 16054A   18191.99198737 -.00000080  00000-0  00000+0 0  9996
2 41752   0.0815 101.8140 0006194 174.3204  83.7925  1.00271498  6755
GSAT-18                 
1 41793U 16060A   18191.99236197 -.00000080  00000-0  00000+0 0  9991
2 41793   0.0759 275.6406 0008189 175.2269 269.2247  1.00271158  6480
SKY MUSTER 2            
1 41794U 16060B   18191.79598259 -.00000247  00000-0  00000-0 0  9996
2 41794   0.0151 342.9281 0001346 131.1143 245.9703  1.00270628  6463
HIMAWARI-9              
1 41836U 16064A   18191.80719395 -.00000278  00000-0  00000+0 0  9998
2 41836   0.0447 290.4128 0000353 286.3185 143.2648  1.00269565  6243
SHIJIAN-17 (SJ-17)      
1 41838U 16065A   18191.96648839 -.00000272  00000-0  00000-0 0  9997
2 41838   4.2661  69.5361 0003704 223.3973  78.0144  1.00267339  6166
GOES 16                 
1 41866U 16071A   18192.40538113 -.00000253  00000-0  00000+0 0  9996
2 41866   0.0141 204.0757 0000258 341.3148 174.6060  1.00271509  6057
TIANLIAN 1-04           
1 41869U 16072A   18191.96732345 -.00000108  00000-0  00000-0 0  9993
2 41869   1.8333 286.7534 0015265 160.6235 266.7808  1.00273216  6257
FENGYUN 4A              
1 41882U 16077A   18192.59061308 -.00000333  00000-0  00000+0 0  9996
2 41882   0.0154 316.6209 0008353 190.2460  99.7162  1.00264313  5923
ECHOSTAR 19             
1 41893U 16079A   18191.46881106 -.00000140  00000-0  00000+0 0  9997
2 41893   0.0234  36.0342 0001103  75.0811 248.8965  1.00269234  5678
JCSAT-15                
1 41903U 16082A   18191.89215746 -.00000353  00000-0  00000+0 0  9997
2 41903   0.0206 305.3173 0001331 312.5082 102.1577  1.00272100  5728
STAR ONE D1             
1 41904U 16082B   18192.43000494 -.00000215  00000-0  00000+0 0  9998
2 41904   0.0264  56.2347 0002630  63.7043 240.0871  1.00270508  5733
